Name,Address,City,State,ZipCode,Phone,CardiacRating,EmergencyServices,Specializations,BedsCount,Website
Mount Sinai General Hospital,3757 Hospital Dr,Miami,DE,13905,(295) 423-4811,4.6,True,"Congenital Heart Disease, Interventional Cardiology",567,www.mountsinaigeneralhospital.com
Colorado Springs Heart & Vascular Institute,9028 Health Blvd,Colorado Springs,AK,65392,(548) 484-3547,3.8,True,"Heart Surgery, Heart Failure",270,www.coloradospringsheart&vascularinstitute.com
New Orleans Regional Medical Center,1684 Medical Ave,New Orleans,MI,26361,(587) 280-5803,4.8,True,"Vascular Surgery, Preventive Cardiology",693,www.neworleansregionalmedicalcenter.com
Raleigh Cardiovascular Hospital,1239 Main St,Raleigh,MS,23238,(589) 484-8428,4.5,True,"Cardiac Rehabilitation, Congenital Heart Disease",700,www.raleighcardiovascularhospital.com
Johns Hopkins Sacred Heart Hospital,4474 Healing Rd,Portland,HI,59735,(476) 855-4598,4.9,True,"Cardiac Rehabilitation, Electrophysiology, Vascular Surgery",751,www.johnshopkinssacredhearthospital.com
Boston Medical Center,625 University Ave,Boston,WY,75435,(605) 858-8517,4.0,True,"Heart Failure, Electrophysiology, Vascular Surgery",196,www.bostonmedicalcenter.com
Cleveland Clinic Baptist Hospital,4404 Healing Rd,Charlotte,FL,21915,(973) 248-2796,4.4,False,"Heart Failure, Electrophysiology, Congenital Heart Disease, Preventive Cardiology, Cardiac Rehabilitation",206,www.clevelandclinicbaptisthospital.com
Mayo Clinic Veterans Hospital,6352 Care Way,Miami,HI,80381,(968) 473-6573,5.0,True,"Electrophysiology, Heart Failure",164,www.mayoclinicveteranshospital.com
Johns Hopkins Community Hospital,4415 Care Way,Denver,NV,93748,(719) 823-4258,4.6,True,"Preventive Cardiology, Congenital Heart Disease",206,www.johnshopkinscommunityhospital.com
Portland Community Hospital,8789 Main St,Portland,WI,50306,(445) 259-4946,4.4,True,"Heart Failure, Congenital Heart Disease",630,www.portlandcommunityhospital.com
Philadelphia County Medical Center,8827 University Ave,Philadelphia,CO,65461,(416) 752-4295,3.7,True,"Preventive Cardiology, Vascular Surgery, Congenital Heart Disease",780,www.philadelphiacountymedicalcenter.com
Cleveland Clinic Sacred Heart Hospital,7497 Main St,Washington,MT,38864,(207) 272-1964,3.9,True,"Cardiac Rehabilitation, Preventive Cardiology",284,www.clevelandclinicsacredhearthospital.com
Phoenix St. Mary's Hospital,3999 Medical Ave,Phoenix,AZ,63354,(394) 296-2588,4.5,True,"Vascular Surgery, Electrophysiology, Cardiac Rehabilitation",724,www.phoenixstmaryshospital.com
Memphis Veterans Hospital,987 Healing Rd,Memphis,MN,54473,(311) 454-4139,4.5,True,"Congenital Heart Disease, Heart Failure",244,www.memphisveteranshospital.com
Cedar Sinai University Hospital,7679 Hospital Dr,Mesa,NH,80855,(215) 295-4872,4.8,True,"Interventional Cardiology, Heart Failure",220,www.cedarsinaiuniversityhospital.com
Detroit County Medical Center,6670 Main St,Detroit,NY,82845,(877) 935-8973,3.7,True,"Preventive Cardiology, Congenital Heart Disease, Cardiac Rehabilitation, Heart Surgery, Heart Failure",208,www.detroitcountymedicalcenter.com
Cleveland Clinic Memorial Hospital,8983 Main St,San Francisco,ME,18981,(809) 269-4853,4.6,True,"Heart Surgery, Interventional Cardiology, Preventive Cardiology, Congenital Heart Disease, Electrophysiology",463,www.clevelandclinicmemorialhospital.com
St. Joseph Baptist Hospital,1443 Health Blvd,San Diego,OR,41285,(471) 605-3144,4.5,True,"Preventive Cardiology, Electrophysiology, Heart Failure, Heart Surgery",737,www.stjosephbaptisthospital.com
Virginia Beach City Hospital,1288 Main St,Virginia Beach,MD,37938,(718) 471-3170,4.2,False,"Electrophysiology, Preventive Cardiology",407,www.virginiabeachcityhospital.com
Phoenix Sacred Heart Hospital,7279 University Ave,Phoenix,KS,23577,(337) 470-2891,4.3,True,"Preventive Cardiology, Heart Failure",159,www.phoenixsacredhearthospital.com
Bakersfield University Hospital,3550 Healing Rd,Bakersfield,OK,93136,(633) 483-1722,4.0,True,"Vascular Surgery, Heart Surgery, Interventional Cardiology, Heart Failure",53,www.bakersfielduniversityhospital.com
Cedar Sinai University Hospital,2747 Healing Rd,Nashville,WY,29536,(758) 236-7049,4.2,True,"Electrophysiology, Interventional Cardiology",646,www.cedarsinaiuniversityhospital.com
Kansas City Veterans Hospital,5150 Medical Ave,Kansas City,GA,99399,(455) 882-2684,4.8,True,"Heart Failure, Electrophysiology",412,www.kansascityveteranshospital.com
Johns Hopkins Veterans Hospital,2632 Hospital Dr,Honolulu,OK,53540,(621) 885-5065,4.8,False,"Congenital Heart Disease, Interventional Cardiology, Electrophysiology",323,www.johnshopkinsveteranshospital.com
St. Joseph Regional Medical Center,7811 Hospital Dr,Austin,VT,13101,(875) 397-7528,3.8,False,"Preventive Cardiology, Congenital Heart Disease, Electrophysiology, Heart Failure",386,www.stjosephregionalmedicalcenter.com
Cleveland Clinic Methodist Hospital,6648 Healing Rd,Seattle,CA,33405,(794) 471-1626,5.0,True,"Electrophysiology, Heart Surgery",161,www.clevelandclinicmethodisthospital.com
Cedar Sinai Sacred Heart Hospital,7249 Care Way,Colorado Springs,NV,67154,(201) 732-9821,5.0,True,"Preventive Cardiology, Interventional Cardiology, Heart Failure",753,www.cedarsinaisacredhearthospital.com
St. Joseph Memorial Hospital,5509 Care Way,Wichita,WV,62743,(913) 502-3085,4.0,True,"Preventive Cardiology, Heart Failure, Cardiac Rehabilitation, Heart Surgery",246,www.stjosephmemorialhospital.com
Mount Sinai Children's Hospital,9424 Medical Ave,Detroit,TX,89516,(870) 529-8618,4.1,True,"Preventive Cardiology, Electrophysiology, Cardiac Rehabilitation, Vascular Surgery",502,www.mountsinaichildrenshospital.com
Louisville Memorial Hospital,2880 Healing Rd,Louisville,UT,39444,(403) 350-1400,3.6,True,"Electrophysiology, Congenital Heart Disease, Vascular Surgery, Heart Surgery",97,www.louisvillememorialhospital.com
Johns Hopkins Heart Institute,9531 Hospital Dr,Fort Worth,NM,65724,(424) 380-9486,4.6,True,"Cardiac Rehabilitation, Electrophysiology, Heart Failure, Interventional Cardiology, Preventive Cardiology",525,www.johnshopkinsheartinstitute.com
St. Joseph Baptist Hospital,7578 Hospital Dr,Houston,OK,65933,(761) 656-3607,4.7,True,"Vascular Surgery, Preventive Cardiology, Heart Failure, Congenital Heart Disease",536,www.stjosephbaptisthospital.com
Cedar Sinai Baptist Hospital,8640 Health Blvd,Louisville,KY,45614,(543) 527-9849,4.4,True,"Preventive Cardiology, Electrophysiology",132,www.cedarsinaibaptisthospital.com
Mount Sinai Baptist Hospital,3605 Main St,Dallas,GA,86556,(912) 220-7232,4.1,True,"Congenital Heart Disease, Interventional Cardiology, Electrophysiology, Cardiac Rehabilitation, Preventive Cardiology",538,www.mountsinaibaptisthospital.com
New York Presbyterian Hospital,6965 Care Way,New York,MN,67125,(697) 229-7371,4.6,True,"Vascular Surgery, Electrophysiology, Heart Surgery",394,www.newyorkpresbyterianhospital.com
Oakland Children's Hospital,7757 Hospital Dr,Oakland,UT,70515,(386) 251-5262,5.0,True,"Interventional Cardiology, Vascular Surgery, Heart Failure, Cardiac Rehabilitation, Electrophysiology",438,www.oaklandchildrenshospital.com
Boston City Hospital,6311 Medical Ave,Boston,IN,16826,(558) 429-2124,4.6,True,"Electrophysiology, Cardiac Rehabilitation, Interventional Cardiology, Preventive Cardiology",717,www.bostoncityhospital.com
Mount Sinai General Hospital,433 Care Way,Chicago,WI,43586,(985) 577-3749,3.7,True,"Cardiac Rehabilitation, Vascular Surgery",670,www.mountsinaigeneralhospital.com
Mount Sinai Regional Medical Center,5196 Main St,Colorado Springs,WV,23356,(913) 991-5941,4.4,False,"Congenital Heart Disease, Heart Failure, Electrophysiology, Interventional Cardiology, Vascular Surgery",750,www.mountsinairegionalmedicalcenter.com
Cedar Sinai Cardiovascular Hospital,8828 Health Blvd,Colorado Springs,DE,23833,(643) 570-8532,4.5,True,"Interventional Cardiology, Congenital Heart Disease, Cardiac Rehabilitation, Heart Failure",774,www.cedarsinaicardiovascularhospital.com
Johns Hopkins Community Hospital,4525 Care Way,San Jose,NV,52245,(451) 288-5569,4.7,True,"Vascular Surgery, Cardiac Rehabilitation, Heart Failure, Preventive Cardiology, Heart Surgery",511,www.johnshopkinscommunityhospital.com
Johns Hopkins City Hospital,6309 Medical Ave,Fort Worth,WI,43862,(548) 486-5526,3.5,False,"Vascular Surgery, Electrophysiology, Heart Surgery",619,www.johnshopkinscityhospital.com
New York Memorial Hospital,6758 Health Blvd,New York,ND,39045,(614) 908-4986,4.3,True,"Vascular Surgery, Cardiac Rehabilitation, Interventional Cardiology, Heart Failure, Heart Surgery",363,www.newyorkmemorialhospital.com
Cleveland Clinic Sacred Heart Hospital,5732 Health Blvd,Oakland,PA,40217,(323) 938-4155,5.0,True,"Vascular Surgery, Heart Surgery, Congenital Heart Disease, Heart Failure",373,www.clevelandclinicsacredhearthospital.com
Johns Hopkins Heart & Vascular Institute,3133 Hospital Dr,San Diego,WV,39816,(569) 383-5952,3.8,True,"Electrophysiology, Congenital Heart Disease, Vascular Surgery, Heart Surgery",64,www.johnshopkinsheart&vascularinstitute.com
Arlington University Hospital,993 Care Way,Arlington,OH,71524,(690) 651-6582,3.9,False,"Electrophysiology, Congenital Heart Disease, Interventional Cardiology, Preventive Cardiology, Heart Surgery",238,www.arlingtonuniversityhospital.com
Houston County Medical Center,1170 Health Blvd,Houston,KY,83772,(511) 287-5066,4.2,True,"Heart Surgery, Electrophysiology",171,www.houstoncountymedicalcenter.com
Kansas City Veterans Hospital,3797 University Ave,Kansas City,WI,84531,(835) 261-2625,4.3,True,"Preventive Cardiology, Congenital Heart Disease, Vascular Surgery, Cardiac Rehabilitation, Heart Surgery",262,www.kansascityveteranshospital.com
Mount Sinai Methodist Hospital,4029 Hospital Dr,Miami,IN,14278,(437) 495-5632,4.3,True,"Vascular Surgery, Heart Failure, Preventive Cardiology, Cardiac Rehabilitation, Heart Surgery",769,www.mountsinaimethodisthospital.com
Milwaukee Baptist Hospital,9763 Healing Rd,Milwaukee,CA,29528,(472) 345-2169,4.7,True,"Cardiac Rehabilitation, Heart Failure",111,www.milwaukeebaptisthospital.com
Mayo Clinic Cardiovascular Hospital,2137 Health Blvd,Austin,MD,15224,(642) 952-6280,4.5,True,"Vascular Surgery, Cardiac Rehabilitation, Interventional Cardiology, Preventive Cardiology",668,www.mayocliniccardiovascularhospital.com
Charlotte Heart Institute,9524 Care Way,Charlotte,AK,78021,(867) 652-5557,4.9,False,"Interventional Cardiology, Congenital Heart Disease, Electrophysiology, Cardiac Rehabilitation",235,www.charlotteheartinstitute.com
Mayo Clinic County Medical Center,5800 Health Blvd,Omaha,NV,74942,(495) 878-7561,4.0,True,"Heart Failure, Cardiac Rehabilitation, Vascular Surgery",613,www.mayocliniccountymedicalcenter.com
Cedar Sinai Heart Institute,1999 University Ave,Chicago,NJ,17104,(392) 730-6927,4.1,True,"Vascular Surgery, Cardiac Rehabilitation",687,www.cedarsinaiheartinstitute.com
Mount Sinai City Hospital,4475 Care Way,New Orleans,NY,30758,(518) 764-1224,3.7,True,"Electrophysiology, Interventional Cardiology, Heart Failure, Preventive Cardiology, Vascular Surgery",615,www.mountsinaicityhospital.com
St. Joseph Baptist Hospital,7660 Main St,Detroit,CO,41946,(667) 764-3369,4.5,True,"Preventive Cardiology, Cardiac Rehabilitation, Congenital Heart Disease, Heart Failure",442,www.stjosephbaptisthospital.com
Mount Sinai Cardiac Care Center,1243 Medical Ave,San Francisco,RI,49132,(801) 793-9022,4.7,False,"Preventive Cardiology, Congenital Heart Disease, Interventional Cardiology, Heart Surgery",202,www.mountsinaicardiaccarecenter.com
Cleveland Clinic County Medical Center,9003 Health Blvd,Louisville,OH,40613,(994) 620-1715,4.2,True,"Cardiac Rehabilitation, Preventive Cardiology, Vascular Surgery",375,www.clevelandcliniccountymedicalcenter.com
Johns Hopkins Children's Hospital,2592 Health Blvd,Bakersfield,NM,78937,(667) 215-3361,4.9,True,"Electrophysiology, Congenital Heart Disease, Cardiac Rehabilitation, Interventional Cardiology",469,www.johnshopkinschildrenshospital.com
Cedar Sinai Heart Institute,5646 Care Way,Virginia Beach,GA,80912,(236) 832-2121,4.5,True,"Congenital Heart Disease, Heart Surgery, Heart Failure, Cardiac Rehabilitation",290,www.cedarsinaiheartinstitute.com
Johns Hopkins Presbyterian Hospital,1580 Health Blvd,Miami,UT,49251,(229) 247-6314,5.0,True,"Vascular Surgery, Electrophysiology",107,www.johnshopkinspresbyterianhospital.com
Mount Sinai Sacred Heart Hospital,8802 Health Blvd,Denver,MN,60140,(834) 899-4945,4.3,True,"Heart Surgery, Interventional Cardiology, Preventive Cardiology",559,www.mountsinaisacredhearthospital.com
Cedar Sinai Baptist Hospital,7629 Medical Ave,Omaha,GA,67898,(553) 801-5901,4.5,False,"Preventive Cardiology, Heart Failure, Vascular Surgery, Electrophysiology, Interventional Cardiology",704,www.cedarsinaibaptisthospital.com
Cedar Sinai Methodist Hospital,3363 Health Blvd,Memphis,VT,96275,(605) 481-1132,4.8,True,"Heart Failure, Preventive Cardiology, Heart Surgery, Vascular Surgery, Interventional Cardiology",629,www.cedarsinaimethodisthospital.com
Johns Hopkins Medical Center,8238 University Ave,Minneapolis,WY,34920,(835) 456-3240,4.9,True,"Heart Failure, Electrophysiology, Vascular Surgery",693,www.johnshopkinsmedicalcenter.com
Mayo Clinic Medical Center,646 Care Way,San Antonio,SD,36318,(335) 752-6994,4.0,True,"Heart Failure, Vascular Surgery, Cardiac Rehabilitation, Electrophysiology",593,www.mayoclinicmedicalcenter.com
Fresno Community Hospital,7994 University Ave,Fresno,LA,28449,(972) 431-7511,3.9,False,"Vascular Surgery, Interventional Cardiology",620,www.fresnocommunityhospital.com
Portland Children's Hospital,8891 Main St,Portland,CO,24201,(891) 439-8724,4.2,True,"Congenital Heart Disease, Vascular Surgery, Heart Failure, Heart Surgery",75,www.portlandchildrenshospital.com
Mount Sinai St. Mary's Hospital,1135 Healing Rd,Raleigh,OK,14877,(511) 704-2902,4.7,False,"Congenital Heart Disease, Interventional Cardiology, Electrophysiology, Vascular Surgery",149,www.mountsinaistmaryshospital.com
Cedar Sinai University Hospital,8950 Health Blvd,Fort Worth,OH,46666,(233) 906-7070,4.4,True,"Electrophysiology, Congenital Heart Disease, Cardiac Rehabilitation, Preventive Cardiology, Heart Failure",272,www.cedarsinaiuniversityhospital.com
St. Joseph Baptist Hospital,6118 Care Way,Louisville,NH,34878,(325) 665-2501,4.9,True,"Congenital Heart Disease, Heart Surgery",728,www.stjosephbaptisthospital.com
Columbus General Hospital,5564 Hospital Dr,Columbus,TN,37152,(800) 421-4817,5.0,True,"Electrophysiology, Congenital Heart Disease, Preventive Cardiology",386,www.columbusgeneralhospital.com
Honolulu General Hospital,2470 Hospital Dr,Honolulu,GA,11947,(566) 443-6304,4.3,True,"Interventional Cardiology, Electrophysiology",66,www.honolulugeneralhospital.com
Jacksonville Medical Center,6997 Care Way,Jacksonville,KY,76039,(426) 829-1710,3.7,True,"Heart Failure, Preventive Cardiology, Congenital Heart Disease, Interventional Cardiology, Cardiac Rehabilitation",794,www.jacksonvillemedicalcenter.com
Johns Hopkins Cardiac Care Center,610 Main St,Anaheim,TX,20589,(529) 822-3430,5.0,True,"Electrophysiology, Cardiac Rehabilitation, Heart Failure, Congenital Heart Disease, Interventional Cardiology",117,www.johnshopkinscardiaccarecenter.com
Cedar Sinai Cardiovascular Hospital,6340 Care Way,Dallas,LA,66370,(662) 433-7779,4.3,True,"Electrophysiology, Congenital Heart Disease, Heart Failure, Interventional Cardiology, Vascular Surgery",397,www.cedarsinaicardiovascularhospital.com
Cedar Sinai Veterans Hospital,7092 Medical Ave,Milwaukee,MT,21188,(295) 642-2582,4.5,True,"Vascular Surgery, Interventional Cardiology, Congenital Heart Disease",431,www.cedarsinaiveteranshospital.com
Cleveland Clinic Medical Center,9302 Medical Ave,Dallas,OK,23579,(791) 719-4485,4.5,True,"Interventional Cardiology, Heart Surgery, Preventive Cardiology, Congenital Heart Disease, Heart Failure",208,www.clevelandclinicmedicalcenter.com
Cedar Sinai Baptist Hospital,9213 Medical Ave,Oakland,NM,91490,(828) 891-1430,3.7,True,"Congenital Heart Disease, Vascular Surgery, Preventive Cardiology",673,www.cedarsinaibaptisthospital.com
Oakland Methodist Hospital,4577 Healing Rd,Oakland,VT,96159,(610) 271-3324,4.6,False,"Interventional Cardiology, Electrophysiology, Congenital Heart Disease, Preventive Cardiology",698,www.oaklandmethodisthospital.com
Los Angeles Cardiac Care Center,6978 Health Blvd,Los Angeles,CO,90981,(250) 890-2336,4.0,True,"Electrophysiology, Interventional Cardiology, Vascular Surgery, Heart Failure",328,www.losangelescardiaccarecenter.com
Mayo Clinic Veterans Hospital,6885 Medical Ave,Louisville,TX,73783,(739) 883-6053,3.8,True,"Congenital Heart Disease, Interventional Cardiology, Heart Surgery, Preventive Cardiology",96,www.mayoclinicveteranshospital.com
Indianapolis Medical Center,5038 Hospital Dr,Indianapolis,MT,66446,(379) 332-7229,4.7,True,"Heart Failure, Interventional Cardiology, Congenital Heart Disease, Cardiac Rehabilitation",595,www.indianapolismedicalcenter.com
Johns Hopkins Cardiac Care Center,5902 Main St,Arlington,IA,85156,(614) 926-7843,4.1,True,"Interventional Cardiology, Cardiac Rehabilitation, Vascular Surgery, Heart Surgery, Congenital Heart Disease",346,www.johnshopkinscardiaccarecenter.com
Mount Sinai General Hospital,7638 University Ave,San Diego,MT,78676,(280) 605-6083,4.5,True,"Electrophysiology, Vascular Surgery, Cardiac Rehabilitation, Preventive Cardiology, Heart Failure",397,www.mountsinaigeneralhospital.com
Indianapolis Community Hospital,1968 Care Way,Indianapolis,MI,40968,(305) 349-5193,4.3,False,"Heart Failure, Vascular Surgery, Congenital Heart Disease, Electrophysiology",252,www.indianapoliscommunityhospital.com
Johns Hopkins University Hospital,1334 Hospital Dr,Jacksonville,RI,92210,(523) 354-8205,4.9,True,"Vascular Surgery, Heart Failure, Preventive Cardiology, Congenital Heart Disease, Heart Surgery",119,www.johnshopkinsuniversityhospital.com
Cleveland Clinic Presbyterian Hospital,1020 Medical Ave,Albuquerque,NH,94497,(292) 829-9307,4.3,True,"Interventional Cardiology, Vascular Surgery, Heart Surgery, Heart Failure, Congenital Heart Disease",443,www.clevelandclinicpresbyterianhospital.com
Johns Hopkins Heart & Vascular Institute,772 Health Blvd,Milwaukee,PA,75715,(354) 263-8381,4.9,True,"Heart Failure, Preventive Cardiology, Cardiac Rehabilitation",155,www.johnshopkinsheart&vascularinstitute.com
Mount Sinai Heart Institute,741 Hospital Dr,Nashville,VA,60779,(618) 993-6543,4.6,False,"Heart Failure, Heart Surgery, Congenital Heart Disease",745,www.mountsinaiheartinstitute.com
Colorado Springs St. Mary's Hospital,1648 Care Way,Colorado Springs,AR,96980,(344) 558-6082,4.5,True,"Heart Failure, Interventional Cardiology, Preventive Cardiology",721,www.coloradospringsstmaryshospital.com
Tampa Children's Hospital,1488 Medical Ave,Tampa,TX,22249,(861) 886-7937,4.3,True,"Heart Surgery, Heart Failure, Congenital Heart Disease, Preventive Cardiology",570,www.tampachildrenshospital.com
Mount Sinai Sacred Heart Hospital,5698 University Ave,Portland,AK,23256,(719) 989-9843,4.2,True,"Heart Surgery, Interventional Cardiology, Vascular Surgery",589,www.mountsinaisacredhearthospital.com
Cleveland Clinic St. Mary's Hospital,2247 Care Way,Chicago,TX,57749,(892) 936-4891,4.1,True,"Vascular Surgery, Interventional Cardiology, Cardiac Rehabilitation",504,www.clevelandclinicstmaryshospital.com
Raleigh City Hospital,4018 Medical Ave,Raleigh,ME,67749,(672) 987-5616,4.9,True,"Heart Failure, Vascular Surgery, Preventive Cardiology",441,www.raleighcityhospital.com
Fresno Veterans Hospital,3371 University Ave,Fresno,ND,58655,(767) 305-9452,4.4,False,"Vascular Surgery, Congenital Heart Disease",177,www.fresnoveteranshospital.com
Denver Community Hospital,8510 Hospital Dr,Denver,CO,64381,(254) 605-9224,4.7,True,"Vascular Surgery, Heart Surgery, Interventional Cardiology",432,www.denvercommunityhospital.com
St. Joseph Heart Institute,5321 Main St,Fort Worth,MO,71925,(912) 342-8685,4.8,True,"Heart Surgery, Interventional Cardiology, Vascular Surgery",509,www.stjosephheartinstitute.com
Raleigh Heart Institute,3633 University Ave,Raleigh,AL,25970,(248) 444-7878,3.7,False,"Electrophysiology, Congenital Heart Disease, Heart Surgery, Vascular Surgery, Heart Failure",704,www.raleighheartinstitute.com
Anaheim City Hospital,8289 Care Way,Anaheim,SC,10205,(829) 561-4941,4.3,True,"Heart Surgery, Vascular Surgery, Cardiac Rehabilitation",634,www.anaheimcityhospital.com
Cedar Sinai Heart Institute,1208 Care Way,Detroit,ID,71621,(244) 850-7338,4.3,True,"Congenital Heart Disease, Vascular Surgery",432,www.cedarsinaiheartinstitute.com
St. Joseph General Hospital,5749 Hospital Dr,Charlotte,WV,54374,(858) 379-8612,4.6,True,"Heart Surgery, Interventional Cardiology, Vascular Surgery, Preventive Cardiology",762,www.stjosephgeneralhospital.com
St. Joseph Community Hospital,7598 Main St,Albuquerque,SD,77552,(607) 756-8756,3.9,True,"Interventional Cardiology, Heart Surgery, Congenital Heart Disease",309,www.stjosephcommunityhospital.com
Chicago Memorial Hospital,883 University Ave,Chicago,WI,60678,(547) 391-9129,4.5,True,"Congenital Heart Disease, Cardiac Rehabilitation, Heart Failure, Vascular Surgery",758,www.chicagomemorialhospital.com
Tucson Cardiac Care Center,1453 Healing Rd,Tucson,MS,20494,(535) 876-5843,4.1,True,"Preventive Cardiology, Heart Surgery, Interventional Cardiology",363,www.tucsoncardiaccarecenter.com
Louisville Veterans Hospital,7372 Medical Ave,Louisville,RI,19835,(887) 852-7655,4.2,True,"Congenital Heart Disease, Heart Surgery, Heart Failure, Interventional Cardiology",422,www.louisvilleveteranshospital.com
Mount Sinai Community Hospital,7279 Main St,Fresno,WV,89310,(357) 895-8371,3.7,True,"Heart Failure, Cardiac Rehabilitation, Preventive Cardiology, Interventional Cardiology",429,www.mountsinaicommunityhospital.com
Cleveland Clinic Heart Institute,6112 Health Blvd,Portland,NH,34385,(711) 730-7340,4.0,True,"Interventional Cardiology, Heart Failure",625,www.clevelandclinicheartinstitute.com
Mount Sinai Methodist Hospital,4778 Healing Rd,San Diego,KY,19706,(662) 376-8292,4.9,True,"Heart Surgery, Congenital Heart Disease",139,www.mountsinaimethodisthospital.com
Cleveland Clinic Sacred Heart Hospital,8982 Medical Ave,Minneapolis,MA,25907,(405) 342-4878,4.8,False,"Heart Failure, Preventive Cardiology, Electrophysiology",555,www.clevelandclinicsacredhearthospital.com
Mayo Clinic Heart & Vascular Institute,9138 Hospital Dr,Los Angeles,MS,78903,(620) 987-7708,4.4,True,"Congenital Heart Disease, Heart Failure, Vascular Surgery, Cardiac Rehabilitation",638,www.mayoclinicheart&vascularinstitute.com
Mayo Clinic St. Mary's Hospital,7732 Healing Rd,Phoenix,FL,17263,(327) 730-3507,4.3,True,"Heart Surgery, Cardiac Rehabilitation, Preventive Cardiology",361,www.mayoclinicstmaryshospital.com
Mount Sinai St. Mary's Hospital,5769 Care Way,Austin,HI,26406,(840) 510-9740,4.8,True,"Cardiac Rehabilitation, Heart Failure, Preventive Cardiology, Heart Surgery",145,www.mountsinaistmaryshospital.com
Cleveland Clinic Community Hospital,2626 Hospital Dr,Fresno,TN,15958,(856) 989-5336,4.5,True,"Interventional Cardiology, Congenital Heart Disease, Vascular Surgery, Heart Failure",716,www.clevelandcliniccommunityhospital.com
Johns Hopkins Cardiovascular Hospital,596 Health Blvd,Columbus,WY,48985,(664) 274-1981,4.8,True,"Vascular Surgery, Electrophysiology, Heart Failure, Cardiac Rehabilitation",211,www.johnshopkinscardiovascularhospital.com
Cedar Sinai County Medical Center,2453 Medical Ave,Louisville,NE,83616,(308) 526-4960,4.8,True,"Congenital Heart Disease, Electrophysiology, Heart Surgery, Preventive Cardiology",527,www.cedarsinaicountymedicalcenter.com
San Diego City Hospital,1686 Main St,San Diego,LA,34881,(981) 363-9163,3.9,True,"Cardiac Rehabilitation, Congenital Heart Disease, Electrophysiology, Heart Surgery, Preventive Cardiology",577,www.sandiegocityhospital.com
St. Joseph Presbyterian Hospital,6542 Care Way,Milwaukee,NY,88317,(869) 888-8710,4.2,True,"Interventional Cardiology, Vascular Surgery, Heart Surgery, Cardiac Rehabilitation",342,www.stjosephpresbyterianhospital.com
Cedar Sinai Regional Medical Center,6092 University Ave,Mesa,AL,82512,(495) 275-7329,4.1,True,"Cardiac Rehabilitation, Heart Surgery",566,www.cedarsinairegionalmedicalcenter.com
Louisville Heart & Vascular Institute,2046 Hospital Dr,Louisville,WI,88966,(721) 611-9193,5.0,True,"Heart Failure, Congenital Heart Disease, Electrophysiology, Vascular Surgery",91,www.louisvilleheart&vascularinstitute.com
Chicago University Hospital,7861 Care Way,Chicago,AZ,31299,(602) 831-5902,4.2,True,"Heart Failure, Preventive Cardiology, Heart Surgery",657,www.chicagouniversityhospital.com
Johns Hopkins Cardiac Care Center,9322 Medical Ave,Nashville,NC,92478,(227) 811-8775,4.2,True,"Electrophysiology, Cardiac Rehabilitation, Preventive Cardiology, Heart Surgery",321,www.johnshopkinscardiaccarecenter.com
Johns Hopkins Cardiovascular Hospital,941 Care Way,Virginia Beach,WY,85047,(917) 312-4125,4.2,True,"Heart Surgery, Congenital Heart Disease, Heart Failure, Electrophysiology, Interventional Cardiology",69,www.johnshopkinscardiovascularhospital.com
Louisville Veterans Hospital,3440 Health Blvd,Louisville,MA,83516,(532) 878-8837,4.3,True,"Interventional Cardiology, Heart Failure, Electrophysiology, Preventive Cardiology, Congenital Heart Disease",588,www.louisvilleveteranshospital.com
Cleveland Clinic Community Hospital,5708 Care Way,Las Vegas,MA,83149,(505) 430-5876,4.0,True,"Vascular Surgery, Electrophysiology, Congenital Heart Disease, Heart Surgery",345,www.clevelandcliniccommunityhospital.com
Cedar Sinai County Medical Center,9283 University Ave,Arlington,IN,15513,(494) 931-2294,4.6,True,"Congenital Heart Disease, Vascular Surgery, Heart Surgery, Electrophysiology, Heart Failure",404,www.cedarsinaicountymedicalcenter.com
Mount Sinai Methodist Hospital,3410 University Ave,Louisville,TN,41363,(448) 251-9700,4.3,False,"Heart Surgery, Interventional Cardiology, Preventive Cardiology, Heart Failure",281,www.mountsinaimethodisthospital.com
Miami Medical Center,5511 Healing Rd,Miami,IA,63334,(868) 687-8822,4.2,True,"Interventional Cardiology, Preventive Cardiology, Electrophysiology",716,www.miamimedicalcenter.com
Johns Hopkins Presbyterian Hospital,1069 University Ave,San Francisco,WI,33040,(237) 606-9116,3.6,True,"Heart Surgery, Cardiac Rehabilitation",240,www.johnshopkinspresbyterianhospital.com
Bakersfield Medical Center,9405 Care Way,Bakersfield,ME,74738,(337) 716-8668,3.7,False,"Vascular Surgery, Heart Failure, Preventive Cardiology, Congenital Heart Disease",329,www.bakersfieldmedicalcenter.com
San Francisco St. Mary's Hospital,7618 Healing Rd,San Francisco,DE,33002,(825) 854-7643,3.9,True,"Preventive Cardiology, Vascular Surgery, Heart Failure, Electrophysiology",487,www.sanfranciscostmaryshospital.com
St. Joseph Heart Institute,3127 Hospital Dr,Fresno,MA,40870,(657) 971-5374,4.2,False,"Preventive Cardiology, Cardiac Rehabilitation",387,www.stjosephheartinstitute.com
Washington Cardiovascular Hospital,5990 Healing Rd,Washington,PA,25389,(854) 502-7021,3.9,True,"Preventive Cardiology, Electrophysiology, Cardiac Rehabilitation, Vascular Surgery, Heart Surgery",679,www.washingtoncardiovascularhospital.com
Mayo Clinic University Hospital,6221 Health Blvd,Indianapolis,IA,20730,(738) 657-9653,4.6,False,"Cardiac Rehabilitation, Heart Failure, Preventive Cardiology",770,www.mayoclinicuniversityhospital.com
Portland Cardiovascular Hospital,9072 Care Way,Portland,CA,67912,(319) 896-4365,3.8,True,"Heart Failure, Congenital Heart Disease, Preventive Cardiology",784,www.portlandcardiovascularhospital.com
Mayo Clinic Heart Institute,1011 Health Blvd,Omaha,NY,50392,(940) 222-7487,3.7,True,"Vascular Surgery, Heart Failure",310,www.mayoclinicheartinstitute.com
St. Joseph Memorial Hospital,7041 Medical Ave,New York,WV,14159,(493) 618-3948,4.6,True,"Electrophysiology, Cardiac Rehabilitation",188,www.stjosephmemorialhospital.com
Mayo Clinic Veterans Hospital,7448 University Ave,Honolulu,TN,55582,(321) 382-9802,4.9,True,"Heart Surgery, Heart Failure",452,www.mayoclinicveteranshospital.com
Sacramento Baptist Hospital,472 Medical Ave,Sacramento,FL,55371,(358) 482-4088,4.2,True,"Congenital Heart Disease, Vascular Surgery, Electrophysiology, Heart Failure, Cardiac Rehabilitation",792,www.sacramentobaptisthospital.com
Mayo Clinic Medical Center,356 Hospital Dr,New Orleans,DE,98083,(920) 249-5009,3.8,True,"Vascular Surgery, Preventive Cardiology",95,www.mayoclinicmedicalcenter.com
Oklahoma City Baptist Hospital,1024 Hospital Dr,Oklahoma City,NH,96535,(733) 426-7775,4.3,True,"Heart Failure, Electrophysiology, Heart Surgery, Congenital Heart Disease",357,www.oklahomacitybaptisthospital.com
Johns Hopkins Heart & Vascular Institute,2969 Healing Rd,Seattle,AR,97994,(590) 737-6222,4.5,True,"Heart Failure, Vascular Surgery",763,www.johnshopkinsheart&vascularinstitute.com
Detroit University Hospital,3112 University Ave,Detroit,NE,28920,(674) 259-7761,4.3,True,"Preventive Cardiology, Congenital Heart Disease, Heart Failure",476,www.detroituniversityhospital.com
Cedar Sinai University Hospital,3431 Medical Ave,Kansas City,ND,16755,(474) 586-1647,4.5,False,"Electrophysiology, Preventive Cardiology, Heart Failure, Vascular Surgery",124,www.cedarsinaiuniversityhospital.com
Cleveland Clinic Cardiovascular Hospital,3655 Health Blvd,San Francisco,WI,72773,(448) 912-4350,3.8,False,"Interventional Cardiology, Electrophysiology, Congenital Heart Disease, Vascular Surgery",456,www.clevelandcliniccardiovascularhospital.com
Mayo Clinic St. Mary's Hospital,7739 Care Way,Fort Worth,OK,51973,(408) 579-6126,4.5,True,"Vascular Surgery, Cardiac Rehabilitation, Interventional Cardiology, Congenital Heart Disease",473,www.mayoclinicstmaryshospital.com
St. Joseph Baptist Hospital,4372 Care Way,Chicago,OR,59786,(783) 451-9180,4.9,True,"Preventive Cardiology, Electrophysiology, Congenital Heart Disease, Heart Surgery, Heart Failure",613,www.stjosephbaptisthospital.com
Virginia Beach St. Mary's Hospital,8105 Healing Rd,Virginia Beach,UT,81636,(700) 388-9882,4.5,True,"Heart Failure, Electrophysiology, Congenital Heart Disease",707,www.virginiabeachstmaryshospital.com
St. Joseph Medical Center,894 University Ave,Houston,ND,11198,(423) 717-8471,3.5,True,"Electrophysiology, Heart Failure, Vascular Surgery",432,www.stjosephmedicalcenter.com
St. Joseph County Medical Center,208 Care Way,Houston,SC,33496,(309) 298-9591,4.3,True,"Preventive Cardiology, Interventional Cardiology, Vascular Surgery, Cardiac Rehabilitation",202,www.stjosephcountymedicalcenter.com
Fort Worth Cardiac Care Center,5907 Medical Ave,Fort Worth,IL,99658,(282) 869-1519,4.7,True,"Vascular Surgery, Preventive Cardiology, Electrophysiology, Heart Failure, Heart Surgery",145,www.fortworthcardiaccarecenter.com
St. Joseph Children's Hospital,254 Healing Rd,Oklahoma City,MO,40115,(416) 908-8790,3.8,True,"Heart Failure, Preventive Cardiology, Interventional Cardiology, Congenital Heart Disease, Vascular Surgery",327,www.stjosephchildrenshospital.com
Cleveland Clinic Methodist Hospital,639 Hospital Dr,Chicago,CA,62205,(278) 506-3661,4.9,True,"Heart Surgery, Congenital Heart Disease, Heart Failure",627,www.clevelandclinicmethodisthospital.com
Cleveland Clinic Children's Hospital,5535 Health Blvd,Fort Worth,OR,22803,(647) 437-2245,4.6,True,"Heart Failure, Interventional Cardiology",398,www.clevelandclinicchildrenshospital.com
Cedar Sinai Children's Hospital,585 Healing Rd,Colorado Springs,WY,34345,(896) 799-7227,3.9,False,"Cardiac Rehabilitation, Heart Surgery, Preventive Cardiology, Vascular Surgery, Heart Failure",137,www.cedarsinaichildrenshospital.com
Johns Hopkins Presbyterian Hospital,1304 Main St,Honolulu,SC,23965,(293) 205-6050,3.9,True,"Congenital Heart Disease, Heart Surgery, Vascular Surgery",505,www.johnshopkinspresbyterianhospital.com
Portland Methodist Hospital,1530 Hospital Dr,Portland,WI,88240,(812) 532-7311,4.1,True,"Electrophysiology, Interventional Cardiology, Congenital Heart Disease, Heart Surgery, Heart Failure",62,www.portlandmethodisthospital.com
Johns Hopkins Children's Hospital,9267 Hospital Dr,Denver,NE,74634,(349) 264-3739,4.4,True,"Heart Surgery, Electrophysiology, Vascular Surgery, Heart Failure, Preventive Cardiology",495,www.johnshopkinschildrenshospital.com
St. Joseph Presbyterian Hospital,6016 Medical Ave,Seattle,NE,10887,(605) 540-7224,4.9,True,"Cardiac Rehabilitation, Vascular Surgery, Interventional Cardiology, Electrophysiology, Heart Surgery",387,www.stjosephpresbyterianhospital.com
Louisville Veterans Hospital,9838 Hospital Dr,Louisville,MI,62198,(526) 498-9044,4.0,True,"Vascular Surgery, Heart Surgery, Electrophysiology",639,www.louisvilleveteranshospital.com
Anaheim St. Mary's Hospital,6537 Medical Ave,Anaheim,KS,37479,(648) 498-2133,3.7,True,"Interventional Cardiology, Heart Failure, Cardiac Rehabilitation",468,www.anaheimstmaryshospital.com
Mount Sinai University Hospital,4239 Healing Rd,Minneapolis,NY,80040,(718) 908-7853,3.7,True,"Electrophysiology, Cardiac Rehabilitation, Preventive Cardiology, Congenital Heart Disease, Heart Failure",606,www.mountsinaiuniversityhospital.com
St. Joseph Heart & Vascular Institute,1891 University Ave,Chicago,MS,98797,(862) 609-6432,3.9,True,"Interventional Cardiology, Preventive Cardiology, Heart Failure",490,www.stjosephheart&vascularinstitute.com
San Antonio Regional Medical Center,8466 Healing Rd,San Antonio,AL,70694,(990) 895-9199,4.3,True,"Vascular Surgery, Heart Surgery, Cardiac Rehabilitation",204,www.sanantonioregionalmedicalcenter.com
Baltimore County Medical Center,6915 Main St,Baltimore,AK,69681,(411) 733-8912,3.7,False,"Heart Failure, Heart Surgery, Congenital Heart Disease",406,www.baltimorecountymedicalcenter.com
Mayo Clinic City Hospital,5325 Main St,Albuquerque,CT,54967,(863) 311-3692,4.0,True,"Interventional Cardiology, Congenital Heart Disease",299,www.mayocliniccityhospital.com
Sacramento Heart & Vascular Institute,9272 Health Blvd,Sacramento,ID,13826,(955) 828-4232,4.9,True,"Heart Surgery, Electrophysiology, Heart Failure, Cardiac Rehabilitation, Preventive Cardiology",510,www.sacramentoheart&vascularinstitute.com
Omaha Children's Hospital,3619 Hospital Dr,Omaha,NV,80371,(391) 574-6340,3.9,True,"Electrophysiology, Congenital Heart Disease",251,www.omahachildrenshospital.com
Mayo Clinic Methodist Hospital,8746 Healing Rd,Milwaukee,DE,98288,(922) 504-2388,4.0,True,"Electrophysiology, Heart Surgery, Congenital Heart Disease, Cardiac Rehabilitation, Vascular Surgery",738,www.mayoclinicmethodisthospital.com
Dallas Regional Medical Center,2016 Hospital Dr,Dallas,MA,65448,(390) 698-9804,4.1,True,"Congenital Heart Disease, Preventive Cardiology, Electrophysiology, Vascular Surgery, Cardiac Rehabilitation",760,www.dallasregionalmedicalcenter.com
Virginia Beach Heart & Vascular Institute,4832 Hospital Dr,Virginia Beach,ID,73518,(339) 399-7290,3.8,True,"Heart Failure, Interventional Cardiology",625,www.virginiabeachheart&vascularinstitute.com
Mayo Clinic County Medical Center,6909 Healing Rd,Fresno,TN,38905,(499) 233-5503,4.8,True,"Interventional Cardiology, Congenital Heart Disease",280,www.mayocliniccountymedicalcenter.com
Cleveland Clinic Community Hospital,8215 Care Way,Mesa,ME,81611,(423) 635-2677,4.3,True,"Heart Failure, Preventive Cardiology, Interventional Cardiology, Cardiac Rehabilitation",719,www.clevelandcliniccommunityhospital.com
St. Joseph Presbyterian Hospital,7468 Medical Ave,New Orleans,KS,89988,(847) 638-3719,4.0,True,"Electrophysiology, Congenital Heart Disease, Vascular Surgery, Heart Failure, Heart Surgery",680,www.stjosephpresbyterianhospital.com
Cleveland Clinic Memorial Hospital,5847 Care Way,Dallas,IN,77425,(895) 297-3221,3.9,True,"Preventive Cardiology, Heart Surgery, Vascular Surgery, Congenital Heart Disease",471,www.clevelandclinicmemorialhospital.com
Mount Sinai University Hospital,4190 Hospital Dr,Houston,LA,59174,(662) 277-2525,4.6,True,"Vascular Surgery, Electrophysiology, Preventive Cardiology, Heart Surgery, Cardiac Rehabilitation",462,www.mountsinaiuniversityhospital.com
Cedar Sinai Methodist Hospital,7549 Health Blvd,Fresno,WV,97050,(914) 566-2037,4.0,True,"Vascular Surgery, Heart Failure",597,www.cedarsinaimethodisthospital.com
Mayo Clinic Veterans Hospital,4499 Medical Ave,Oklahoma City,IN,99463,(980) 249-1752,4.7,True,"Vascular Surgery, Congenital Heart Disease, Heart Surgery",151,www.mayoclinicveteranshospital.com
Miami General Hospital,2688 Health Blvd,Miami,NJ,45916,(295) 870-6905,4.2,False,"Cardiac Rehabilitation, Heart Failure, Electrophysiology, Heart Surgery, Congenital Heart Disease",306,www.miamigeneralhospital.com
Philadelphia Community Hospital,5105 Healing Rd,Philadelphia,MS,37973,(688) 279-3174,4.5,True,"Electrophysiology, Interventional Cardiology",657,www.philadelphiacommunityhospital.com
Indianapolis City Hospital,5729 University Ave,Indianapolis,ND,60209,(291) 948-2678,3.7,False,"Vascular Surgery, Interventional Cardiology, Electrophysiology",155,www.indianapoliscityhospital.com
Boston Presbyterian Hospital,2281 Healing Rd,Boston,MS,56030,(939) 418-3480,5.0,True,"Heart Surgery, Cardiac Rehabilitation",471,www.bostonpresbyterianhospital.com
St. Joseph City Hospital,1746 Hospital Dr,Raleigh,UT,46302,(860) 286-5065,4.6,True,"Heart Failure, Cardiac Rehabilitation, Heart Surgery, Electrophysiology, Preventive Cardiology",616,www.stjosephcityhospital.com
Johns Hopkins Presbyterian Hospital,539 University Ave,Colorado Springs,RI,48737,(861) 255-4921,4.8,False,"Cardiac Rehabilitation, Heart Failure, Vascular Surgery",556,www.johnshopkinspresbyterianhospital.com
Cleveland Clinic Baptist Hospital,1263 Care Way,Las Vegas,DE,65163,(574) 759-3830,4.8,True,"Heart Failure, Electrophysiology, Cardiac Rehabilitation, Preventive Cardiology",532,www.clevelandclinicbaptisthospital.com
St. Joseph General Hospital,4395 Hospital Dr,Honolulu,CA,65518,(918) 611-2350,3.6,True,"Preventive Cardiology, Heart Failure, Congenital Heart Disease, Vascular Surgery, Cardiac Rehabilitation",705,www.stjosephgeneralhospital.com
Mesa University Hospital,5177 Main St,Mesa,OH,93138,(981) 865-2083,4.3,True,"Heart Failure, Cardiac Rehabilitation, Preventive Cardiology",367,www.mesauniversityhospital.com
Tampa Baptist Hospital,1512 Health Blvd,Tampa,NV,96252,(958) 379-2956,3.7,True,"Preventive Cardiology, Heart Failure",62,www.tampabaptisthospital.com
Arlington General Hospital,5780 Care Way,Arlington,FL,25473,(989) 230-6488,4.3,True,"Heart Surgery, Vascular Surgery, Electrophysiology, Congenital Heart Disease",489,www.arlingtongeneralhospital.com
Seattle Heart Institute,9547 Healing Rd,Seattle,ND,58193,(361) 461-2685,3.6,True,"Interventional Cardiology, Cardiac Rehabilitation, Preventive Cardiology, Electrophysiology",637,www.seattleheartinstitute.com
Minneapolis Regional Medical Center,8436 Main St,Minneapolis,WA,60197,(353) 383-1579,3.6,False,"Interventional Cardiology, Cardiac Rehabilitation, Heart Surgery",616,www.minneapolisregionalmedicalcenter.com
Arlington Veterans Hospital,4167 Health Blvd,Arlington,WV,75803,(889) 253-3938,4.9,True,"Heart Failure, Interventional Cardiology",278,www.arlingtonveteranshospital.com
Sacramento Children's Hospital,7720 University Ave,Sacramento,AZ,58354,(405) 498-5979,3.9,True,"Electrophysiology, Preventive Cardiology, Cardiac Rehabilitation, Interventional Cardiology",687,www.sacramentochildrenshospital.com
Mayo Clinic Sacred Heart Hospital,3301 Healing Rd,Fort Worth,NJ,13133,(438) 754-6675,4.9,True,"Heart Surgery, Interventional Cardiology, Cardiac Rehabilitation",701,www.mayoclinicsacredhearthospital.com
Tampa St. Mary's Hospital,6264 University Ave,Tampa,AL,17850,(345) 928-5584,4.6,True,"Cardiac Rehabilitation, Vascular Surgery, Congenital Heart Disease",145,www.tampastmaryshospital.com
Cedar Sinai Cardiac Care Center,7611 Healing Rd,Chicago,IA,84425,(263) 645-3141,3.6,True,"Congenital Heart Disease, Interventional Cardiology, Preventive Cardiology",292,www.cedarsinaicardiaccarecenter.com
Mayo Clinic St. Mary's Hospital,5445 Medical Ave,Denver,KY,24283,(359) 308-3693,4.2,True,"Heart Surgery, Congenital Heart Disease, Preventive Cardiology",510,www.mayoclinicstmaryshospital.com
Milwaukee Veterans Hospital,5970 University Ave,Milwaukee,MA,89076,(241) 420-6370,3.8,True,"Electrophysiology, Interventional Cardiology, Vascular Surgery, Heart Surgery",201,www.milwaukeeveteranshospital.com
Mayo Clinic Baptist Hospital,8512 Main St,Philadelphia,VA,82869,(966) 763-5093,4.5,True,"Interventional Cardiology, Cardiac Rehabilitation, Congenital Heart Disease",146,www.mayoclinicbaptisthospital.com
Milwaukee University Hospital,1110 University Ave,Milwaukee,CT,92614,(860) 286-5240,4.7,True,"Congenital Heart Disease, Heart Surgery, Heart Failure",126,www.milwaukeeuniversityhospital.com
